HAWK-8C                 
1 59449U 24066H   26068.47383543  .00002400  00000+0  21518-3 0  9993
2 59449  45.6068  72.8656 0003935 260.2975  99.7462 14.98770227104860
STARLINK-36192          
1 67024U 25293X   26068.46980497  .00002479  00000+0  21542-3 0  9997
2 67024  70.0008  95.0593 0002902 267.4893  92.5933 14.98335756 14859
